[{"OBJECT_NAME":"BRITE-AUSTRIA","OBJECT_ID":"2013-009F","EPOCH":"2026-03-09T11:09:59.101632","MEAN_MOTION":14.3649602,"ECCENTRICITY":0.00103487,"INCLINATION":98.3955,"RA_OF_ASC_NODE":250.3783,"ARG_OF_PERICENTER":171.7863,"MEAN_ANOMALY":188.3495,"EPHEMERIS_TYPE":0,"CLASSIFICATION_TYPE":"U","NORAD_CAT_ID":39091,"ELEMENT_SET_NO":999,"REV_AT_EPOCH":68273,"BSTAR":0.00011657143,"MEAN_MOTION_DOT":3.0e-6,"MEAN_MOTION_DDOT":0},{"OBJECT_NAME":"IRIDIUM 33 DEB","OBJECT_ID":"1997-051EN","EPOCH":"2026-03-09T21:16:13.147392","MEAN_MOTION":14.3875549,"ECCENTRICITY":0.0028576,"INCLINATION":86.3552,"RA_OF_ASC_NODE":11.0741,"ARG_OF_PERICENTER":5.9245,"MEAN_ANOMALY":354.2285,"EPHEMERIS_TYPE":0,"CLASSIFICATION_TYPE":"U","NORAD_CAT_ID":34159,"ELEMENT_SET_NO":999,"REV_AT_EPOCH":89212,"BSTAR":0.00058984,"MEAN_MOTION_DOT":1.838e-5,"MEAN_MOTION_DDOT":0}]
